{"type": "FeatureCollection", "features": [ {"type": "Feature", "properties": {"norad_id": 30516, "name": "FENGYUN 1C DEB", "group": "fengyun-1c-debris", "lat": -42.281131138285026, "lon": 108.19167000960798, "alt_km": 756.0341729638467, "timestamp": "2025-12-21T16:47:55.015134+00:00", "meta": {"OBJECT_NAME": "FENGYUN 1C DEB", "OBJECT_ID": "1999-025AJE", "EPOCH": "2025-12-21T05:28:24.155040", "MEAN_MOTION": 14.41442552, "ECCENTRICITY": 0.0009954, "INCLINATION": 98.8575, "RA_OF_ASC_NODE": 99.5508, "ARG_OF_PERICENTER": 265.4457, "MEAN_ANOMALY": 124.3374, "EPHEMERIS_TYPE": 0, "CLASSIFICATION_TYPE": "U", "NORAD_CAT_ID": 30516, "ELEMENT_SET_NO": 999, "REV_AT_EPOCH": 97837, "BSTAR": 0.0015693, "MEAN_MOTION_DOT": 5.048e-05, "MEAN_MOTION_DDOT": 0}, "tle": {"line1": "1 30516U 99025AJE 25355.22805735  .00005048  00000+0  15693-2 0  9994", "line2": "2 30516  98.8575  99.5508 0009954 265.4457 124.3374 14.41442552978375"}}, "geometry": {"type": "Point", "coordinates": [108.19167000960798, -42.281131138285026]}}, {"type": "Feature", "properties": {"norad_id": 30520, "name": "FENGYUN 1C DEB", "group": "fengyun-1c-debris", "lat": -80.66470157246879, "lon": -79.17378889985429, "alt_km": 576.5620577790341, "timestamp": "2025-12-21T16:47:55.015144+00:00", "meta": {"OBJECT_NAME": "FENGYUN 1C DEB", "OBJECT_ID": "1999-025AJJ", "EPOCH": "2025-12-20T11:04:56.854560", "MEAN_MOTION": 15.14342936, "ECCENTRICITY": 0.0070124, "INCLINATION": 98.7177, "RA_OF_ASC_NODE": 168.3838, "ARG_OF_PERICENTER": 74.2451, "MEAN_ANOMALY": 286.6496, "EPHEMERIS_TYPE": 0, "CLASSIFICATION_TYPE": "U", "NORAD_CAT_ID": 30520, "ELEMENT_SET_NO": 999, "REV_AT_EPOCH": 1158, "BSTAR": 0.00062179149, "MEAN_MOTION_DOT": 0.00012042, "MEAN_MOTION_DDOT": 0}, "tle": {"line1": "1 30520U 99025AJJ 25354.46176915  .00012042  00000+0  62179-3 0  9999", "line2": "2 30520  98.7177 168.3838 0070124  74.2451 286.6496 15.14342936 11589"}}, "geometry": {"type": "Point", "coordinates": [-79.17378889985429, -80.66470157246879]}}, {"type": "Feature", "properties": {"norad_id": 30521, "name": "FENGYUN 1C DEB", "group": "fengyun-1c-debris", "lat": 66.93438414134637, "lon": 109.83915847535478, "alt_km": 772.9015561523338, "timestamp": "2025-12-21T16:47:55.015154+00:00", "meta": {"OBJECT_NAME": "FENGYUN 1C DEB", "OBJECT_ID": "1999-025AJK", "EPOCH": "2025-12-21T03:18:11.165472", "MEAN_MOTION": 14.58313042, "ECCENTRICITY": 0.01357892, "INCLINATION": 98.989, "RA_OF_ASC_NODE": 131.0537, "ARG_OF_PERICENTER": 218.0978, "MEAN_ANOMALY": 141.0559, "EPHEMERIS_TYPE": 0, "CLASSIFICATION_TYPE": "U", "NORAD_CAT_ID": 30521, "ELEMENT_SET_NO": 999, "REV_AT_EPOCH": 99704, "BSTAR": 0.00056294508, "MEAN_MOTION_DOT": 2.896e-05, "MEAN_MOTION_DDOT": 0}, "tle": {"line1": "1 30521U 99025AJK 25355.13762923  .00002896  00000+0  56295-3 0  9993", "line2": "2 30521  98.9890 131.0537 0135789 218.0978 141.0559 14.58313042997049"}}, "geometry": {"type": "Point", "coordinates": [109.83915847535478, 66.93438414134637]}}, {"type": "Feature", "properties": {"norad_id": 30523, "name": "FENGYUN 1C DEB", "group": "fengyun-1c-debris", "lat": 77.57005266538917, "lon": -68.74445222680838, "alt_km": 616.0910700314598, "timestamp": "2025-12-21T16:47:55.015164+00:00", "meta": {"OBJECT_NAME": "FENGYUN 1C DEB", "OBJECT_ID": "1999-025AJM", "EPOCH": "2025-12-21T05:12:44.162784", "MEAN_MOTION": 14.27940805, "ECCENTRICITY": 0.0244186, "INCLINATION": 98.4666, "RA_OF_ASC_NODE": 333.302, "ARG_OF_PERICENTER": 83.7087, "MEAN_ANOMALY": 36.9737, "EPHEMERIS_TYPE": 0, "CLASSIFICATION_TYPE": "U", "NORAD_CAT_ID": 30523, "ELEMENT_SET_NO": 999, "REV_AT_EPOCH": 98221, "BSTAR": 0.0001694, "MEAN_MOTION_DOT": 5.3e-06, "MEAN_MOTION_DDOT": 0}, "tle": {"line1": "1 30523U 99025AJM 25355.21717781  .00000530  00000+0  16940-3 0  9992", "line2": "2 30523  98.4666 333.3020 0244186  83.7087  36.9737 14.27940805982213"}}, "geometry": {"type": "Point", "coordinates": [-68.74445222680838, 77.57005266538917]}}, {"type": "Feature", "properties": {"norad_id": 30524, "name": "FENGYUN 1C DEB", "group": "fengyun-1c-debris", "lat": -24.48643965645655, "lon": 172.13424757932492, "alt_km": 972.7831960000512, "timestamp": "2025-12-21T16:47:55.015174+00:00", "meta": {"OBJECT_NAME": "FENGYUN 1C DEB", "OBJECT_ID": "1999-025AJN", "EPOCH": "2025-12-16T11:00:51.821568", "MEAN_MOTION": 13.92254836, "ECCENTRICITY": 0.02078556, "INCLINATION": 99.3067, "RA_OF_ASC_NODE": 162.5862, "ARG_OF_PERICENTER": 240.3218, "MEAN_ANOMALY": 117.7105, "EPHEMERIS_TYPE": 0, "CLASSIFICATION_TYPE": "U", "NORAD_CAT_ID": 30524, "ELEMENT_SET_NO": 999, "REV_AT_EPOCH": 93937, "BSTAR": 0.0039327007, "MEAN_MOTION_DOT": 5.976e-05, "MEAN_MOTION_DDOT": 0}, "tle": {"line1": "1 30524U 99025AJN 25350.45893312  .00005976  00000+0  39327-2 0  9991", "line2": "2 30524  99.3067 162.5862 0207855 240.3218 117.7105 13.92254836939373"}}, "geometry": {"type": "Point", "coordinates": [172.13424757932492, -24.48643965645655]}}, {"type": "Feature", "properties": {"norad_id": 30525, "name": "FENGYUN 1C DEB", "group": "fengyun-1c-debris", "lat": -24.029062730828617, "lon": 55.84065490727849, "alt_km": 1009.4070155715135, "timestamp": "2025-12-21T16:47:55.015184+00:00", "meta": {"OBJECT_NAME": "FENGYUN 1C DEB", "OBJECT_ID": "1999-025AJP", "EPOCH": "2025-12-18T15:18:01.895616", "MEAN_MOTION": 13.58621536, "ECCENTRICITY": 0.02931758, "INCLINATION": 98.6028, "RA_OF_ASC_NODE": 237.0204, "ARG_OF_PERICENTER": 294.1589, "MEAN_ANOMALY": 62.9159, "EPHEMERIS_TYPE": 0, "CLASSIFICATION_TYPE": "U", "NORAD_CAT_ID": 30525, "ELEMENT_SET_NO": 999, "REV_AT_EPOCH": 93197, "BSTAR": 0.0010827558, "MEAN_MOTION_DOT": 1.008e-05, "MEAN_MOTION_DDOT": 0}, "tle": {"line1": "1 30525U 99025AJP 25352.63752194  .00001008  00000+0  10828-2 0  9993", "line2": "2 30525  98.6028 237.0204 0293175 294.1589  62.9159 13.58621536931974"}}, "geometry": {"type": "Point", "coordinates": [55.84065490727849, -24.029062730828617]}}, {"type": "Feature", "properties": {"norad_id": 30526, "name": "FENGYUN 1C DEB", "group": "fengyun-1c-debris", "lat": -77.69303063532722, "lon": 128.0842075127976, "alt_km": 891.3557321657954, "timestamp": "2025-12-21T16:47:55.015194+00:00", "meta": {"OBJECT_NAME": "FENGYUN 1C DEB", "OBJECT_ID": "1999-025AJQ", "EPOCH": "2025-12-18T16:16:05.246400", "MEAN_MOTION": 13.4991885, "ECCENTRICITY": 0.03066867, "INCLINATION": 99.5472, "RA_OF_ASC_NODE": 74.7045, "ARG_OF_PERICENTER": 249.9099, "MEAN_ANOMALY": 106.879, "EPHEMERIS_TYPE": 0, "CLASSIFICATION_TYPE": "U", "NORAD_CAT_ID": 30526, "ELEMENT_SET_NO": 999, "REV_AT_EPOCH": 92738, "BSTAR": 0.0011342218, "MEAN_MOTION_DOT": 9.2e-06, "MEAN_MOTION_DDOT": 0}, "tle": {"line1": "1 30526U 99025AJQ 25352.67783850  .00000920  00000+0  11342-2 0  9995", "line2": "2 30526  99.5472  74.7045 0306686 249.9099 106.8790 13.49918850927380"}}, "geometry": {"type": "Point", "coordinates": [128.0842075127976, -77.69303063532722]}}, {"type": "Feature", "properties": {"norad_id": 30527, "name": "FENGYUN 1C DEB", "group": "fengyun-1c-debris", "lat": -56.44376591345661, "lon": 54.42413284603674, "alt_km": 1174.868018419491, "timestamp": "2025-12-21T16:47:55.015204+00:00", "meta": {"OBJECT_NAME": "FENGYUN 1C DEB", "OBJECT_ID": "1999-025AJR", "EPOCH": "2025-12-21T08:45:27.016992", "MEAN_MOTION": 13.31051449, "ECCENTRICITY": 0.0413629, "INCLINATION": 100.0631, "RA_OF_ASC_NODE": 38.5682, "ARG_OF_PERICENTER": 206.0525, "MEAN_ANOMALY": 286.7976, "EPHEMERIS_TYPE": 0, "CLASSIFICATION_TYPE": "U", "NORAD_CAT_ID": 30527, "ELEMENT_SET_NO": 999, "REV_AT_EPOCH": 91471, "BSTAR": 0.001223, "MEAN_MOTION_DOT": 8.89e-06, "MEAN_MOTION_DDOT": 0}, "tle": {"line1": "1 30527U 99025AJR 25355.36489603  .00000889  00000+0  12230-2 0  9995", "line2": "2 30527 100.0631  38.5682 0413629 206.0525 286.7976 13.31051449914715"}}, "geometry": {"type": "Point", "coordinates": [54.42413284603674, -56.44376591345661]}}, {"type": "Feature", "properties": {"norad_id": 30528, "name": "FENGYUN 1C DEB", "group": "fengyun-1c-debris", "lat": 64.50486367591867, "lon": -153.08565853748817, "alt_km": 912.5850651823512, "timestamp": "2025-12-21T16:47:55.015214+00:00", "meta": {"OBJECT_NAME": "FENGYUN 1C DEB", "OBJECT_ID": "1999-025AJS", "EPOCH": "2025-12-20T15:16:18.924096", "MEAN_MOTION": 14.1350413, "ECCENTRICITY": 0.0143752, "INCLINATION": 98.2373, "RA_OF_ASC_NODE": 223.6183, "ARG_OF_PERICENTER": 202.9863, "MEAN_ANOMALY": 214.7969, "EPHEMERIS_TYPE": 0, "CLASSIFICATION_TYPE": "U", "NORAD_CAT_ID": 30528, "ELEMENT_SET_NO": 999, "REV_AT_EPOCH": 97249, "BSTAR": 0.00026498, "MEAN_MOTION_DOT": 5.11e-06, "MEAN_MOTION_DDOT": 0}, "tle": {"line1": "1 30528U 99025AJS 25354.63633014  .00000511  00000+0  26498-3 0  9996", "line2": "2 30528  98.2373 223.6183 0143752 202.9863 214.7969 14.13504130972490"}}, "geometry": {"type": "Point", "coordinates": [-153.08565853748817, 64.50486367591867]}}, {"type": "Feature", "properties": {"norad_id": 30529, "name": "FENGYUN 1C DEB", "group": "fengyun-1c-debris", "lat": 21.468500903418903, "lon": -86.81720992260065, "alt_km": 1163.019096181948, "timestamp": "2025-12-21T16:47:55.015224+00:00", "meta": {"OBJECT_NAME": "FENGYUN 1C DEB", "OBJECT_ID": "1999-025AJT", "EPOCH": "2025-12-13T17:51:26.012448", "MEAN_MOTION": 13.71609854, "ECCENTRICITY": 0.02304788, "INCLINATION": 98.487, "RA_OF_ASC_NODE": 269.5039, "ARG_OF_PERICENTER": 219.6089, "MEAN_ANOMALY": 138.8027, "EPHEMERIS_TYPE": 0, "CLASSIFICATION_TYPE": "U", "NORAD_CAT_ID": 30529, "ELEMENT_SET_NO": 999, "REV_AT_EPOCH": 94022, "BSTAR": 0.00122315, "MEAN_MOTION_DOT": 1.295e-05, "MEAN_MOTION_DDOT": 0}, "tle": {"line1": "1 30529U 99025AJT 25347.74405107  .00001295  00000+0  12232-2 0  9991", "line2": "2 30529  98.4870 269.5039 0230478 219.6089 138.8027 13.71609854940220"}}, "geometry": {"type": "Point", "coordinates": [-86.81720992260065, 21.468500903418903]}}]}